{
    "links": {
        "self": "http://www.neowsapp.com/rest/v1/neo/54051087?api_key=iIulBulltgU6a56xZRHN4H3l9WmuAYTsLGpBGhQ2"
    },
    "id": "54051087",
    "neo_reference_id": "54051087",
    "name": "(2020 PB4)",
    "designation": "2020 PB4",
    "nasa_jpl_url": "http://ssd.jpl.nasa.gov/sbdb.cgi?sstr=54051087",
    "absolute_magnitude_h": 24.147,
    "estimated_diameter": {
        "kilometers": {
            "estimated_diameter_min": 0.0393690538,
            "estimated_diameter_max": 0.0880318804
        },
        "meters": {
            "estimated_diameter_min": 39.3690537611,
            "estimated_diameter_max": 88.0318804196
        },
        "miles": {
            "estimated_diameter_min": 0.0244627883,
            "estimated_diameter_max": 0.0547004576
        },
        "feet": {
            "estimated_diameter_min": 129.1635663415,
            "estimated_diameter_max": 288.8185145558
        }
    },
    "is_potentially_hazardous_asteroid": false,
    "close_approach_data": [
        {
            "close_approach_date": "2020-08-23",
            "close_approach_date_full": "2020-Aug-23 18:13",
            "epoch_date_close_approach": 1598206380000,
            "relative_velocity": {
                "kilometers_per_second": "4.1376615807",
                "kilometers_per_hour": "14895.5816903979",
                "miles_per_hour": "9255.5351897919"
            },
            "miss_distance": {
                "astronomical": "0.2175485191",
                "lunar": "84.6263739299",
                "kilometers": "32544795.079014317",
                "miles": "20222397.9370468946"
            },
            "orbiting_body": "Earth"
        }
    ],
    "orbital_data": {
        "orbit_id": "2",
        "orbit_determination_date": "2020-09-14 06:54:47",
        "first_observation_date": "2020-08-14",
        "last_observation_date": "2020-09-13",
        "data_arc_in_days": 30,
        "observations_used": 14,
        "orbit_uncertainty": "8",
        "minimum_orbit_intersection": ".205182",
        "jupiter_tisserand_invariant": "3.601",
        "epoch_osculation": "2459085.5",
        "eccentricity": ".4279593375393442",
        "semi_major_axis": "2.122632027844212",
        "inclination": "5.241570978095665",
        "ascending_node_longitude": "347.3541962321132",
        "orbital_period": "1129.563098944926",
        "perihelion_distance": "1.214231831368208",
        "perihelion_argument": "345.2295043896084",
        "aphelion_distance": "3.031032224320215",
        "perihelion_time": "2459091.219080055299",
        "mean_anomaly": "358.1772874646571",
        "mean_motion": ".3187072951801099",
        "equinox": "J2000",
        "orbit_class": {
            "orbit_class_type": "AMO",
            "orbit_class_description": "Near-Earth asteroid orbits similar to that of 1221 Amor",
            "orbit_class_range": "1.017 AU < q (perihelion) < 1.3 AU"
        }
    },
    "is_sentry_object": false
}